{"fetched_at":"2026-07-18T17:29:57.623Z","source":"https://celestrak.org/NORAD/elements/gp.php?NAME=HULIANWANG&FORMAT=JSON","constellation":"guowang","records":[{"OBJECT_NAME":"HULIANWANG DIGUI-108","OBJECT_ID":"2025-285D","EPOCH":"2026-07-18T06:36:15.947712","CLASSIFICATION_TYPE":"U","MEAN_MOTION":13.2932602,"ECCENTRICITY":0.00009608,"INCLINATION":50.0057,"RA_OF_ASC_NODE":34.5004,"ARG_OF_PERICENTER":48.688,"MEAN_ANOMALY":311.4075,"EPHEMERIS_TYPE":0,"NORAD_CAT_ID":66918,"ELEMENT_SET_NO":999,"REV_AT_EPOCH":3019,"BSTAR":0.000047189807,"MEAN_MOTION_DOT":-0.00000102,"MEAN_MOTION_DDOT":0},{"OBJECT_NAME":"HULIANWANG DIGUI-109","OBJECT_ID":"2025-285E","EPOCH":"2026-07-17T23:11:03.854112","CLASSIFICATION_TYPE":"U","MEAN_MOTION":13.29316721,"ECCENTRICITY":0.00009206,"INCLINATION":50.0086,"RA_OF_ASC_NODE":35.5801,"ARG_OF_PERICENTER":56.9903,"MEAN_ANOMALY":303.1058,"EPHEMERIS_TYPE":0,"NORAD_CAT_ID":66919,"ELEMENT_SET_NO":999,"REV_AT_EPOCH":3016,"BSTAR":0.000024060992,"MEAN_MOTION_DOT":-0.00000113,"MEAN_MOTION_DDOT":0},{"OBJECT_NAME":"HULIANWANG DIGUI-110","OBJECT_ID":"2025-285F","EPOCH":"2026-07-17T22:59:13.994304","CLASSIFICATION_TYPE":"U","MEAN_MOTION":13.29326549,"ECCENTRICITY":0.00008944,"INCLINATION":50.0118,"RA_OF_ASC_NODE":35.5947,"ARG_OF_PERICENTER":48.8647,"MEAN_ANOMALY":311.2302,"EPHEMERIS_TYPE":0,"NORAD_CAT_ID":66920,"ELEMENT_SET_NO":999,"REV_AT_EPOCH":3015,"BSTAR":0.000026682447,"MEAN_MOTION_DOT":-0.00000112,"MEAN_MOTION_DDOT":0},{"OBJECT_NAME":"HULIANWANG DIGUI-111","OBJECT_ID":"2025-285G","EPOCH":"2026-07-18T06:00:17.466624","CLASSIFICATION_TYPE":"U","MEAN_MOTION":13.29326019,"ECCENTRICITY":0.00009043,"INCLINATION":50.0134,"RA_OF_ASC_NODE":34.5033,"ARG_OF_PERICENTER":49.8521,"MEAN_ANOMALY":310.2431,"EPHEMERIS_TYPE":0,"NORAD_CAT_ID":66921,"ELEMENT_SET_NO":999,"REV_AT_EPOCH":3019,"BSTAR":0.000008988405,"MEAN_MOTION_DOT":-0.0000012,"MEAN_MOTION_DDOT":0},{"OBJECT_NAME":"HULIANWANG DIGUI-112","OBJECT_ID":"2025-285H","EPOCH":"2026-07-18T05:48:12.072096","CLASSIFICATION_TYPE":"U","MEAN_MOTION":13.2932591,"ECCENTRICITY":0.00009579,"INCLINATION":50.0097,"RA_OF_ASC_NODE":34.3948,"ARG_OF_PERICENTER":46.8172,"MEAN_ANOMALY":313.278,"EPHEMERIS_TYPE":0,"NORAD_CAT_ID":66922,"ELEMENT_SET_NO":999,"REV_AT_EPOCH":3019,"BSTAR":0.000013219566,"MEAN_MOTION_DOT":-0.00000118,"MEAN_MOTION_DDOT":0},{"OBJECT_NAME":"HULIANWANG DIGUI-113","OBJECT_ID":"2025-285J","EPOCH":"2026-07-17T22:23:17.585952","CLASSIFICATION_TYPE":"U","MEAN_MOTION":13.29324249,"ECCENTRICITY":0.00009482,"INCLINATION":50.0105,"RA_OF_ASC_NODE":35.4471,"ARG_OF_PERICENTER":45.6362,"MEAN_ANOMALY":314.4588,"EPHEMERIS_TYPE":0,"NORAD_CAT_ID":66923,"ELEMENT_SET_NO":999,"REV_AT_EPOCH":3015,"BSTAR":2.53383e-7,"MEAN_MOTION_DOT":-0.00000124,"MEAN_MOTION_DDOT":0},{"OBJECT_NAME":"HULIANWANG DIGUI-114","OBJECT_ID":"2025-287A","EPOCH":"2026-07-18T04:36:39.016800","CLASSIFICATION_TYPE":"U","MEAN_MOTION":13.24413584,"ECCENTRICITY":0.00022773,"INCLINATION":86.4927,"RA_OF_ASC_NODE":271.8905,"ARG_OF_PERICENTER":97.3837,"MEAN_ANOMALY":262.7556,"EPHEMERIS_TYPE":0,"NORAD_CAT_ID":66953,"ELEMENT_SET_NO":999,"REV_AT_EPOCH":2944,"BSTAR":0.000031580027,"MEAN_MOTION_DOT":2.8e-7,"MEAN_MOTION_DDOT":0},{"OBJECT_NAME":"HULIANWANG DIGUI-115","OBJECT_ID":"2025-287B","EPOCH":"2026-07-18T04:25:22.368288","CLASSIFICATION_TYPE":"U","MEAN_MOTION":13.24401072,"ECCENTRICITY":0.00025679,"INCLINATION":86.4943,"RA_OF_ASC_NODE":271.9228,"ARG_OF_PERICENTER":94.5764,"MEAN_ANOMALY":265.5664,"EPHEMERIS_TYPE":0,"NORAD_CAT_ID":66954,"ELEMENT_SET_NO":999,"REV_AT_EPOCH":2944,"BSTAR":0.000040632801,"MEAN_MOTION_DOT":3.2e-7,"MEAN_MOTION_DDOT":0},{"OBJECT_NAME":"HULIANWANG DIGUI-116","OBJECT_ID":"2025-287C","EPOCH":"2026-07-18T04:14:54.109824","CLASSIFICATION_TYPE":"U","MEAN_MOTION":13.24413299,"ECCENTRICITY":0.00023742,"INCLINATION":86.4883,"RA_OF_ASC_NODE":271.7841,"ARG_OF_PERICENTER":95.184,"MEAN_ANOMALY":264.9565,"EPHEMERIS_TYPE":0,"NORAD_CAT_ID":66955,"ELEMENT_SET_NO":999,"REV_AT_EPOCH":2944,"BSTAR":0.000069276498,"MEAN_MOTION_DOT":4.4e-7,"MEAN_MOTION_DDOT":0},{"OBJECT_NAME":"HULIANWANG DIGUI-117","OBJECT_ID":"2025-287D","EPOCH":"2026-07-18T04:04:04.242720","CLASSIFICATION_TYPE":"U","MEAN_MOTION":13.2441292,"ECCENTRICITY":0.00008815,"INCLINATION":86.4944,"RA_OF_ASC_NODE":271.9171,"ARG_OF_PERICENTER":67.8111,"MEAN_ANOMALY":292.3117,"EPHEMERIS_TYPE":0,"NORAD_CAT_ID":66956,"ELEMENT_SET_NO":999,"REV_AT_EPOCH":2944,"BSTAR":0.000086586871,"MEAN_MOTION_DOT":5.2e-7,"MEAN_MOTION_DDOT":0},{"OBJECT_NAME":"HULIANWANG DIGUI-118","OBJECT_ID":"2025-287E","EPOCH":"2026-07-18T03:53:10.710528","CLASSIFICATION_TYPE":"U","MEAN_MOTION":13.24412374,"ECCENTRICITY":0.00023325,"INCLINATION":86.492,"RA_OF_ASC_NODE":271.8597,"ARG_OF_PERICENTER":96.9259,"MEAN_ANOMALY":263.2141,"EPHEMERIS_TYPE":0,"NORAD_CAT_ID":66957,"ELEMENT_SET_NO":999,"REV_AT_EPOCH":2944,"BSTAR":0.00011298825,"MEAN_MOTION_DOT":6.3e-7,"MEAN_MOTION_DDOT":0},{"OBJECT_NAME":"HULIANWANG DIGUI-119","OBJECT_ID":"2025-295A","EPOCH":"2026-07-18T04:56:05.759808","CLASSIFICATION_TYPE":"U","MEAN_MOTION":13.29324715,"ECCENTRICITY":0.00011264,"INCLINATION":50.0036,"RA_OF_ASC_NODE":274.5349,"ARG_OF_PERICENTER":203.09,"MEAN_ANOMALY":156.9921,"EPHEMERIS_TYPE":0,"NORAD_CAT_ID":67059,"ELEMENT_SET_NO":999,"REV_AT_EPOCH":2962,"BSTAR":0.00008364839,"MEAN_MOTION_DOT":-8.5e-7,"MEAN_MOTION_DDOT":0},{"OBJECT_NAME":"HULIANWANG DIGUI-120","OBJECT_ID":"2025-295B","EPOCH":"2026-07-17T21:19:01.165152","CLASSIFICATION_TYPE":"U","MEAN_MOTION":13.29324579,"ECCENTRICITY":0.0001154,"INCLINATION":50.0041,"RA_OF_ASC_NODE":275.5368,"ARG_OF_PERICENTER":202.0623,"MEAN_ANOMALY":158.02,"EPHEMERIS_TYPE":0,"NORAD_CAT_ID":67060,"ELEMENT_SET_NO":999,"REV_AT_EPOCH":2958,"BSTAR":0.000078439498,"MEAN_MOTION_DOT":-8.8e-7,"MEAN_MOTION_DDOT":0},{"OBJECT_NAME":"HULIANWANG DIGUI-121","OBJECT_ID":"2025-295C","EPOCH":"2026-07-17T14:18:00.179424","CLASSIFICATION_TYPE":"U","MEAN_MOTION":13.29325766,"ECCENTRICITY":0.0001149,"INCLINATION":50.0003,"RA_OF_ASC_NODE":276.5839,"ARG_OF_PERICENTER":197.8948,"MEAN_ANOMALY":162.1883,"EPHEMERIS_TYPE":0,"NORAD_CAT_ID":67061,"ELEMENT_SET_NO":999,"REV_AT_EPOCH":2954,"BSTAR":0.000047852,"MEAN_MOTION_DOT":-0.00000102,"MEAN_MOTION_DDOT":0},{"OBJECT_NAME":"HULIANWANG DIGUI-122","OBJECT_ID":"2025-295D","EPOCH":"2026-07-18T06:08:10.201632","CLASSIFICATION_TYPE":"U","MEAN_MOTION":13.2932459,"ECCENTRICITY":0.0001134,"INCLINATION":50.0036,"RA_OF_ASC_NODE":274.135,"ARG_OF_PERICENTER":201.2945,"MEAN_ANOMALY":158.788,"EPHEMERIS_TYPE":0,"NORAD_CAT_ID":67062,"ELEMENT_SET_NO":999,"REV_AT_EPOCH":2963,"BSTAR":0.000079054315,"MEAN_MOTION_DOT":-8.7e-7,"MEAN_MOTION_DDOT":0},{"OBJECT_NAME":"HULIANWANG DIGUI-123","OBJECT_ID":"2025-295E","EPOCH":"2026-07-18T05:56:13.467840","CLASSIFICATION_TYPE":"U","MEAN_MOTION":13.29324293,"ECCENTRICITY":0.0001054,"INCLINATION":50.0036,"RA_OF_ASC_NODE":274.0953,"ARG_OF_PERICENTER":202.7871,"MEAN_ANOMALY":157.2955,"EPHEMERIS_TYPE":0,"NORAD_CAT_ID":67063,"ELEMENT_SET_NO":999,"REV_AT_EPOCH":2963,"BSTAR":0.000094420733,"MEAN_MOTION_DOT":-8e-7,"MEAN_MOTION_DDOT":0}]}
