HULIANWANG DIGUI-108    
1 66918U 25285D   26199.27518458 -.00000102  00000+0  47190-4 0  9997
2 66918  50.0057  34.5004 0000960  48.6880 311.4075 13.29326020 30196
HULIANWANG DIGUI-109    
1 66919U 25285E   26198.96601683 -.00000113  00000+0  24061-4 0  9990
2 66919  50.0086  35.5801 0000920  56.9903 303.1058 13.29316721 30162
HULIANWANG DIGUI-110    
1 66920U 25285F   26198.95780086 -.00000112  00000+0  26682-4 0  9996
2 66920  50.0118  35.5947 0000894  48.8647 311.2302 13.29326549 30156
HULIANWANG DIGUI-111    
1 66921U 25285G   26199.25020216 -.00000120  00000+0  89884-5 0  9996
2 66921  50.0134  34.5033 0000904  49.8521 310.2431 13.29326019 30192
HULIANWANG DIGUI-112    
1 66922U 25285H   26199.24180639 -.00000118  00000+0  13220-4 0  9999
2 66922  50.0097  34.3948 0000957  46.8172 313.2780 13.29325910 30190
HULIANWANG DIGUI-113    
1 66923U 25285J   26198.93284243 -.00000124  00000+0  25338-6 0  9993
2 66923  50.0105  35.4471 0000948  45.6362 314.4588 13.29324249 30151
HULIANWANG DIGUI-114    
1 66953U 25287A   26199.19211825  .00000028  00000+0  31580-4 0  9999
2 66953  86.4927 271.8905 0002277  97.3837 262.7556 13.24413584 29441
HULIANWANG DIGUI-115    
1 66954U 25287B   26199.18428667  .00000032  00000+0  40633-4 0  9997
2 66954  86.4943 271.9228 0002567  94.5764 265.5664 13.24401072 29449
HULIANWANG DIGUI-116    
1 66955U 25287C   26199.17701516  .00000044  00000+0  69276-4 0  9991
2 66955  86.4883 271.7841 0002374  95.1840 264.9565 13.24413299 29447
HULIANWANG DIGUI-117    
1 66956U 25287D   26199.16949355  .00000052  00000+0  86587-4 0  9999
2 66956  86.4944 271.9171 0000881  67.8111 292.3117 13.24412920 29440
HULIANWANG DIGUI-118    
1 66957U 25287E   26199.16192952  .00000063  00000+0  11299-3 0  9992
2 66957  86.4920 271.8597 0002332  96.9259 263.2141 13.24412374 29442
HULIANWANG DIGUI-119    
1 67059U 25295A   26199.20562222 -.00000085  00000+0  83648-4 0  9994
2 67059  50.0036 274.5349 0001126 203.0900 156.9921 13.29324715 29620
HULIANWANG DIGUI-120    
1 67060U 25295B   26198.88820793 -.00000088  00000+0  78439-4 0  9994
2 67060  50.0041 275.5368 0001154 202.0623 158.0200 13.29324579 29588
HULIANWANG DIGUI-121    
1 67061U 25295C   26198.59583541 -.00000102  00000+0  47852-4 0  9992
2 67061  50.0003 276.5839 0001149 197.8948 162.1883 13.29325766 29544
HULIANWANG DIGUI-122    
1 67062U 25295D   26199.25567363 -.00000087  00000+0  79054-4 0  9992
2 67062  50.0036 274.1350 0001134 201.2945 158.7880 13.29324590 29636
HULIANWANG DIGUI-123    
1 67063U 25295E   26199.24737810 -.00000080  00000+0  94421-4 0  9996
2 67063  50.0036 274.0953 0001054 202.7871 157.2955 13.29324293 29637
